<?xml version="1.0" encoding="UTF-8"?>
<kml xmlns="http://www.opengis.net/kml/2.2">
  <Document>
    <name>numeración </name>
    <Style id="icon-seq2-0-0-3949AB-nodesc-normal">
      <IconStyle>
        <color>ffab4939</color>
        <scale>1</scale>
        <Icon>
          <href>images/icon-1.png</href>
        </Icon>
      </IconStyle>
      <LabelStyle>
        <scale>0</scale>
      </LabelStyle>
      <BalloonStyle>
        <text><![CDATA[<h3>$[name]</h3>]]></text>
      </BalloonStyle>
    </Style>
    <Style id="icon-seq2-0-0-3949AB-nodesc-highlight">
      <IconStyle>
        <color>ffab4939</color>
        <scale>1</scale>
        <Icon>
          <href>images/icon-1.png</href>
        </Icon>
      </IconStyle>
      <LabelStyle>
        <scale>1</scale>
      </LabelStyle>
      <BalloonStyle>
        <text><![CDATA[<h3>$[name]</h3>]]></text>
      </BalloonStyle>
    </Style>
    <StyleMap id="icon-seq2-0-0-3949AB-nodesc">
      <Pair>
        <key>normal</key>
        <styleUrl>#icon-seq2-0-0-3949AB-nodesc-normal</styleUrl>
      </Pair>
      <Pair>
        <key>highlight</key>
        <styleUrl>#icon-seq2-0-0-3949AB-nodesc-highlight</styleUrl>
      </Pair>
    </StyleMap>
    <Style id="icon-seq2-0-1-3949AB-nodesc-normal">
      <IconStyle>
        <color>ffab4939</color>
        <scale>1</scale>
        <Icon>
          <href>images/icon-2.png</href>
        </Icon>
      </IconStyle>
      <LabelStyle>
        <scale>0</scale>
      </LabelStyle>
      <BalloonStyle>
        <text><![CDATA[<h3>$[name]</h3>]]></text>
      </BalloonStyle>
    </Style>
    <Style id="icon-seq2-0-1-3949AB-nodesc-highlight">
      <IconStyle>
        <color>ffab4939</color>
        <scale>1</scale>
        <Icon>
          <href>images/icon-2.png</href>
        </Icon>
      </IconStyle>
      <LabelStyle>
        <scale>1</scale>
      </LabelStyle>
      <BalloonStyle>
        <text><![CDATA[<h3>$[name]</h3>]]></text>
      </BalloonStyle>
    </Style>
    <StyleMap id="icon-seq2-0-1-3949AB-nodesc">
      <Pair>
        <key>normal</key>
        <styleUrl>#icon-seq2-0-1-3949AB-nodesc-normal</styleUrl>
      </Pair>
      <Pair>
        <key>highlight</key>
        <styleUrl>#icon-seq2-0-1-3949AB-nodesc-highlight</styleUrl>
      </Pair>
    </StyleMap>
    <Style id="icon-seq2-0-10-3949AB-nodesc-normal">
      <IconStyle>
        <color>ffab4939</color>
        <scale>1</scale>
        <Icon>
          <href>images/icon-11.png</href>
        </Icon>
      </IconStyle>
      <LabelStyle>
        <scale>0</scale>
      </LabelStyle>
      <BalloonStyle>
        <text><![CDATA[<h3>$[name]</h3>]]></text>
      </BalloonStyle>
    </Style>
    <Style id="icon-seq2-0-10-3949AB-nodesc-highlight">
      <IconStyle>
        <color>ffab4939</color>
        <scale>1</scale>
        <Icon>
          <href>images/icon-11.png</href>
        </Icon>
      </IconStyle>
      <LabelStyle>
        <scale>1</scale>
      </LabelStyle>
      <BalloonStyle>
        <text><![CDATA[<h3>$[name]</h3>]]></text>
      </BalloonStyle>
    </Style>
    <StyleMap id="icon-seq2-0-10-3949AB-nodesc">
      <Pair>
        <key>normal</key>
        <styleUrl>#icon-seq2-0-10-3949AB-nodesc-normal</styleUrl>
      </Pair>
      <Pair>
        <key>highlight</key>
        <styleUrl>#icon-seq2-0-10-3949AB-nodesc-highlight</styleUrl>
      </Pair>
    </StyleMap>
    <Style id="icon-seq2-0-11-3949AB-nodesc-normal">
      <IconStyle>
        <color>ffab4939</color>
        <scale>1</scale>
        <Icon>
          <href>images/icon-12.png</href>
        </Icon>
      </IconStyle>
      <LabelStyle>
        <scale>0</scale>
      </LabelStyle>
      <BalloonStyle>
        <text><![CDATA[<h3>$[name]</h3>]]></text>
      </BalloonStyle>
    </Style>
    <Style id="icon-seq2-0-11-3949AB-nodesc-highlight">
      <IconStyle>
        <color>ffab4939</color>
        <scale>1</scale>
        <Icon>
          <href>images/icon-12.png</href>
        </Icon>
      </IconStyle>
      <LabelStyle>
        <scale>1</scale>
      </LabelStyle>
      <BalloonStyle>
        <text><![CDATA[<h3>$[name]</h3>]]></text>
      </BalloonStyle>
    </Style>
    <StyleMap id="icon-seq2-0-11-3949AB-nodesc">
      <Pair>
        <key>normal</key>
        <styleUrl>#icon-seq2-0-11-3949AB-nodesc-normal</styleUrl>
      </Pair>
      <Pair>
        <key>highlight</key>
        <styleUrl>#icon-seq2-0-11-3949AB-nodesc-highlight</styleUrl>
      </Pair>
    </StyleMap>
    <Style id="icon-seq2-0-12-3949AB-nodesc-normal">
      <IconStyle>
        <color>ffab4939</color>
        <scale>1</scale>
        <Icon>
          <href>images/icon-13.png</href>
        </Icon>
      </IconStyle>
      <LabelStyle>
        <scale>0</scale>
      </LabelStyle>
      <BalloonStyle>
        <text><![CDATA[<h3>$[name]</h3>]]></text>
      </BalloonStyle>
    </Style>
    <Style id="icon-seq2-0-12-3949AB-nodesc-highlight">
      <IconStyle>
        <color>ffab4939</color>
        <scale>1</scale>
        <Icon>
          <href>images/icon-13.png</href>
        </Icon>
      </IconStyle>
      <LabelStyle>
        <scale>1</scale>
      </LabelStyle>
      <BalloonStyle>
        <text><![CDATA[<h3>$[name]</h3>]]></text>
      </BalloonStyle>
    </Style>
    <StyleMap id="icon-seq2-0-12-3949AB-nodesc">
      <Pair>
        <key>normal</key>
        <styleUrl>#icon-seq2-0-12-3949AB-nodesc-normal</styleUrl>
      </Pair>
      <Pair>
        <key>highlight</key>
        <styleUrl>#icon-seq2-0-12-3949AB-nodesc-highlight</styleUrl>
      </Pair>
    </StyleMap>
    <Style id="icon-seq2-0-13-3949AB-nodesc-normal">
      <IconStyle>
        <color>ffab4939</color>
        <scale>1</scale>
        <Icon>
          <href>images/icon-14.png</href>
        </Icon>
      </IconStyle>
      <LabelStyle>
        <scale>0</scale>
      </LabelStyle>
      <BalloonStyle>
        <text><![CDATA[<h3>$[name]</h3>]]></text>
      </BalloonStyle>
    </Style>
    <Style id="icon-seq2-0-13-3949AB-nodesc-highlight">
      <IconStyle>
        <color>ffab4939</color>
        <scale>1</scale>
        <Icon>
          <href>images/icon-14.png</href>
        </Icon>
      </IconStyle>
      <LabelStyle>
        <scale>1</scale>
      </LabelStyle>
      <BalloonStyle>
        <text><![CDATA[<h3>$[name]</h3>]]></text>
      </BalloonStyle>
    </Style>
    <StyleMap id="icon-seq2-0-13-3949AB-nodesc">
      <Pair>
        <key>normal</key>
        <styleUrl>#icon-seq2-0-13-3949AB-nodesc-normal</styleUrl>
      </Pair>
      <Pair>
        <key>highlight</key>
        <styleUrl>#icon-seq2-0-13-3949AB-nodesc-highlight</styleUrl>
      </Pair>
    </StyleMap>
    <Style id="icon-seq2-0-14-3949AB-nodesc-normal">
      <IconStyle>
        <color>ffab4939</color>
        <scale>1</scale>
        <Icon>
          <href>images/icon-15.png</href>
        </Icon>
      </IconStyle>
      <LabelStyle>
        <scale>0</scale>
      </LabelStyle>
      <BalloonStyle>
        <text><![CDATA[<h3>$[name]</h3>]]></text>
      </BalloonStyle>
    </Style>
    <Style id="icon-seq2-0-14-3949AB-nodesc-highlight">
      <IconStyle>
        <color>ffab4939</color>
        <scale>1</scale>
        <Icon>
          <href>images/icon-15.png</href>
        </Icon>
      </IconStyle>
      <LabelStyle>
        <scale>1</scale>
      </LabelStyle>
      <BalloonStyle>
        <text><![CDATA[<h3>$[name]</h3>]]></text>
      </BalloonStyle>
    </Style>
    <StyleMap id="icon-seq2-0-14-3949AB-nodesc">
      <Pair>
        <key>normal</key>
        <styleUrl>#icon-seq2-0-14-3949AB-nodesc-normal</styleUrl>
      </Pair>
      <Pair>
        <key>highlight</key>
        <styleUrl>#icon-seq2-0-14-3949AB-nodesc-highlight</styleUrl>
      </Pair>
    </StyleMap>
    <Style id="icon-seq2-0-15-3949AB-nodesc-normal">
      <IconStyle>
        <color>ffab4939</color>
        <scale>1</scale>
        <Icon>
          <href>images/icon-16.png</href>
        </Icon>
      </IconStyle>
      <LabelStyle>
        <scale>0</scale>
      </LabelStyle>
      <BalloonStyle>
        <text><![CDATA[<h3>$[name]</h3>]]></text>
      </BalloonStyle>
    </Style>
    <Style id="icon-seq2-0-15-3949AB-nodesc-highlight">
      <IconStyle>
        <color>ffab4939</color>
        <scale>1</scale>
        <Icon>
          <href>images/icon-16.png</href>
        </Icon>
      </IconStyle>
      <LabelStyle>
        <scale>1</scale>
      </LabelStyle>
      <BalloonStyle>
        <text><![CDATA[<h3>$[name]</h3>]]></text>
      </BalloonStyle>
    </Style>
    <StyleMap id="icon-seq2-0-15-3949AB-nodesc">
      <Pair>
        <key>normal</key>
        <styleUrl>#icon-seq2-0-15-3949AB-nodesc-normal</styleUrl>
      </Pair>
      <Pair>
        <key>highlight</key>
        <styleUrl>#icon-seq2-0-15-3949AB-nodesc-highlight</styleUrl>
      </Pair>
    </StyleMap>
    <Style id="icon-seq2-0-16-3949AB-nodesc-normal">
      <IconStyle>
        <color>ffab4939</color>
        <scale>1</scale>
        <Icon>
          <href>images/icon-17.png</href>
        </Icon>
      </IconStyle>
      <LabelStyle>
        <scale>0</scale>
      </LabelStyle>
      <BalloonStyle>
        <text><![CDATA[<h3>$[name]</h3>]]></text>
      </BalloonStyle>
    </Style>
    <Style id="icon-seq2-0-16-3949AB-nodesc-highlight">
      <IconStyle>
        <color>ffab4939</color>
        <scale>1</scale>
        <Icon>
          <href>images/icon-17.png</href>
        </Icon>
      </IconStyle>
      <LabelStyle>
        <scale>1</scale>
      </LabelStyle>
      <BalloonStyle>
        <text><![CDATA[<h3>$[name]</h3>]]></text>
      </BalloonStyle>
    </Style>
    <StyleMap id="icon-seq2-0-16-3949AB-nodesc">
      <Pair>
        <key>normal</key>
        <styleUrl>#icon-seq2-0-16-3949AB-nodesc-normal</styleUrl>
      </Pair>
      <Pair>
        <key>highlight</key>
        <styleUrl>#icon-seq2-0-16-3949AB-nodesc-highlight</styleUrl>
      </Pair>
    </StyleMap>
    <Style id="icon-seq2-0-17-3949AB-nodesc-normal">
      <IconStyle>
        <color>ffab4939</color>
        <scale>1</scale>
        <Icon>
          <href>images/icon-18.png</href>
        </Icon>
      </IconStyle>
      <LabelStyle>
        <scale>0</scale>
      </LabelStyle>
      <BalloonStyle>
        <text><![CDATA[<h3>$[name]</h3>]]></text>
      </BalloonStyle>
    </Style>
    <Style id="icon-seq2-0-17-3949AB-nodesc-highlight">
      <IconStyle>
        <color>ffab4939</color>
        <scale>1</scale>
        <Icon>
          <href>images/icon-18.png</href>
        </Icon>
      </IconStyle>
      <LabelStyle>
        <scale>1</scale>
      </LabelStyle>
      <BalloonStyle>
        <text><![CDATA[<h3>$[name]</h3>]]></text>
      </BalloonStyle>
    </Style>
    <StyleMap id="icon-seq2-0-17-3949AB-nodesc">
      <Pair>
        <key>normal</key>
        <styleUrl>#icon-seq2-0-17-3949AB-nodesc-normal</styleUrl>
      </Pair>
      <Pair>
        <key>highlight</key>
        <styleUrl>#icon-seq2-0-17-3949AB-nodesc-highlight</styleUrl>
      </Pair>
    </StyleMap>
    <Style id="icon-seq2-0-18-3949AB-nodesc-normal">
      <IconStyle>
        <color>ffab4939</color>
        <scale>1</scale>
        <Icon>
          <href>images/icon-19.png</href>
        </Icon>
      </IconStyle>
      <LabelStyle>
        <scale>0</scale>
      </LabelStyle>
      <BalloonStyle>
        <text><![CDATA[<h3>$[name]</h3>]]></text>
      </BalloonStyle>
    </Style>
    <Style id="icon-seq2-0-18-3949AB-nodesc-highlight">
      <IconStyle>
        <color>ffab4939</color>
        <scale>1</scale>
        <Icon>
          <href>images/icon-19.png</href>
        </Icon>
      </IconStyle>
      <LabelStyle>
        <scale>1</scale>
      </LabelStyle>
      <BalloonStyle>
        <text><![CDATA[<h3>$[name]</h3>]]></text>
      </BalloonStyle>
    </Style>
    <StyleMap id="icon-seq2-0-18-3949AB-nodesc">
      <Pair>
        <key>normal</key>
        <styleUrl>#icon-seq2-0-18-3949AB-nodesc-normal</styleUrl>
      </Pair>
      <Pair>
        <key>highlight</key>
        <styleUrl>#icon-seq2-0-18-3949AB-nodesc-highlight</styleUrl>
      </Pair>
    </StyleMap>
    <Style id="icon-seq2-0-19-3949AB-nodesc-normal">
      <IconStyle>
        <color>ffab4939</color>
        <scale>1</scale>
        <Icon>
          <href>images/icon-20.png</href>
        </Icon>
      </IconStyle>
      <LabelStyle>
        <scale>0</scale>
      </LabelStyle>
      <BalloonStyle>
        <text><![CDATA[<h3>$[name]</h3>]]></text>
      </BalloonStyle>
    </Style>
    <Style id="icon-seq2-0-19-3949AB-nodesc-highlight">
      <IconStyle>
        <color>ffab4939</color>
        <scale>1</scale>
        <Icon>
          <href>images/icon-20.png</href>
        </Icon>
      </IconStyle>
      <LabelStyle>
        <scale>1</scale>
      </LabelStyle>
      <BalloonStyle>
        <text><![CDATA[<h3>$[name]</h3>]]></text>
      </BalloonStyle>
    </Style>
    <StyleMap id="icon-seq2-0-19-3949AB-nodesc">
      <Pair>
        <key>normal</key>
        <styleUrl>#icon-seq2-0-19-3949AB-nodesc-normal</styleUrl>
      </Pair>
      <Pair>
        <key>highlight</key>
        <styleUrl>#icon-seq2-0-19-3949AB-nodesc-highlight</styleUrl>
      </Pair>
    </StyleMap>
    <Style id="icon-seq2-0-2-3949AB-nodesc-normal">
      <IconStyle>
        <color>ffab4939</color>
        <scale>1</scale>
        <Icon>
          <href>images/icon-3.png</href>
        </Icon>
      </IconStyle>
      <LabelStyle>
        <scale>0</scale>
      </LabelStyle>
      <BalloonStyle>
        <text><![CDATA[<h3>$[name]</h3>]]></text>
      </BalloonStyle>
    </Style>
    <Style id="icon-seq2-0-2-3949AB-nodesc-highlight">
      <IconStyle>
        <color>ffab4939</color>
        <scale>1</scale>
        <Icon>
          <href>images/icon-3.png</href>
        </Icon>
      </IconStyle>
      <LabelStyle>
        <scale>1</scale>
      </LabelStyle>
      <BalloonStyle>
        <text><![CDATA[<h3>$[name]</h3>]]></text>
      </BalloonStyle>
    </Style>
    <StyleMap id="icon-seq2-0-2-3949AB-nodesc">
      <Pair>
        <key>normal</key>
        <styleUrl>#icon-seq2-0-2-3949AB-nodesc-normal</styleUrl>
      </Pair>
      <Pair>
        <key>highlight</key>
        <styleUrl>#icon-seq2-0-2-3949AB-nodesc-highlight</styleUrl>
      </Pair>
    </StyleMap>
    <Style id="icon-seq2-0-20-3949AB-nodesc-normal">
      <IconStyle>
        <color>ffab4939</color>
        <scale>1</scale>
        <Icon>
          <href>images/icon-21.png</href>
        </Icon>
      </IconStyle>
      <LabelStyle>
        <scale>0</scale>
      </LabelStyle>
      <BalloonStyle>
        <text><![CDATA[<h3>$[name]</h3>]]></text>
      </BalloonStyle>
    </Style>
    <Style id="icon-seq2-0-20-3949AB-nodesc-highlight">
      <IconStyle>
        <color>ffab4939</color>
        <scale>1</scale>
        <Icon>
          <href>images/icon-21.png</href>
        </Icon>
      </IconStyle>
      <LabelStyle>
        <scale>1</scale>
      </LabelStyle>
      <BalloonStyle>
        <text><![CDATA[<h3>$[name]</h3>]]></text>
      </BalloonStyle>
    </Style>
    <StyleMap id="icon-seq2-0-20-3949AB-nodesc">
      <Pair>
        <key>normal</key>
        <styleUrl>#icon-seq2-0-20-3949AB-nodesc-normal</styleUrl>
      </Pair>
      <Pair>
        <key>highlight</key>
        <styleUrl>#icon-seq2-0-20-3949AB-nodesc-highlight</styleUrl>
      </Pair>
    </StyleMap>
    <Style id="icon-seq2-0-21-3949AB-nodesc-normal">
      <IconStyle>
        <color>ffab4939</color>
        <scale>1</scale>
        <Icon>
          <href>images/icon-22.png</href>
        </Icon>
      </IconStyle>
      <LabelStyle>
        <scale>0</scale>
      </LabelStyle>
      <BalloonStyle>
        <text><![CDATA[<h3>$[name]</h3>]]></text>
      </BalloonStyle>
    </Style>
    <Style id="icon-seq2-0-21-3949AB-nodesc-highlight">
      <IconStyle>
        <color>ffab4939</color>
        <scale>1</scale>
        <Icon>
          <href>images/icon-22.png</href>
        </Icon>
      </IconStyle>
      <LabelStyle>
        <scale>1</scale>
      </LabelStyle>
      <BalloonStyle>
        <text><![CDATA[<h3>$[name]</h3>]]></text>
      </BalloonStyle>
    </Style>
    <StyleMap id="icon-seq2-0-21-3949AB-nodesc">
      <Pair>
        <key>normal</key>
        <styleUrl>#icon-seq2-0-21-3949AB-nodesc-normal</styleUrl>
      </Pair>
      <Pair>
        <key>highlight</key>
        <styleUrl>#icon-seq2-0-21-3949AB-nodesc-highlight</styleUrl>
      </Pair>
    </StyleMap>
    <Style id="icon-seq2-0-22-3949AB-nodesc-normal">
      <IconStyle>
        <color>ffab4939</color>
        <scale>1</scale>
        <Icon>
          <href>images/icon-23.png</href>
        </Icon>
      </IconStyle>
      <LabelStyle>
        <scale>0</scale>
      </LabelStyle>
      <BalloonStyle>
        <text><![CDATA[<h3>$[name]</h3>]]></text>
      </BalloonStyle>
    </Style>
    <Style id="icon-seq2-0-22-3949AB-nodesc-highlight">
      <IconStyle>
        <color>ffab4939</color>
        <scale>1</scale>
        <Icon>
          <href>images/icon-23.png</href>
        </Icon>
      </IconStyle>
      <LabelStyle>
        <scale>1</scale>
      </LabelStyle>
      <BalloonStyle>
        <text><![CDATA[<h3>$[name]</h3>]]></text>
      </BalloonStyle>
    </Style>
    <StyleMap id="icon-seq2-0-22-3949AB-nodesc">
      <Pair>
        <key>normal</key>
        <styleUrl>#icon-seq2-0-22-3949AB-nodesc-normal</styleUrl>
      </Pair>
      <Pair>
        <key>highlight</key>
        <styleUrl>#icon-seq2-0-22-3949AB-nodesc-highlight</styleUrl>
      </Pair>
    </StyleMap>
    <Style id="icon-seq2-0-23-3949AB-nodesc-normal">
      <IconStyle>
        <color>ffab4939</color>
        <scale>1</scale>
        <Icon>
          <href>images/icon-24.png</href>
        </Icon>
      </IconStyle>
      <LabelStyle>
        <scale>0</scale>
      </LabelStyle>
      <BalloonStyle>
        <text><![CDATA[<h3>$[name]</h3>]]></text>
      </BalloonStyle>
    </Style>
    <Style id="icon-seq2-0-23-3949AB-nodesc-highlight">
      <IconStyle>
        <color>ffab4939</color>
        <scale>1</scale>
        <Icon>
          <href>images/icon-24.png</href>
        </Icon>
      </IconStyle>
      <LabelStyle>
        <scale>1</scale>
      </LabelStyle>
      <BalloonStyle>
        <text><![CDATA[<h3>$[name]</h3>]]></text>
      </BalloonStyle>
    </Style>
    <StyleMap id="icon-seq2-0-23-3949AB-nodesc">
      <Pair>
        <key>normal</key>
        <styleUrl>#icon-seq2-0-23-3949AB-nodesc-normal</styleUrl>
      </Pair>
      <Pair>
        <key>highlight</key>
        <styleUrl>#icon-seq2-0-23-3949AB-nodesc-highlight</styleUrl>
      </Pair>
    </StyleMap>
    <Style id="icon-seq2-0-24-3949AB-nodesc-normal">
      <IconStyle>
        <color>ffab4939</color>
        <scale>1</scale>
        <Icon>
          <href>images/icon-25.png</href>
        </Icon>
      </IconStyle>
      <LabelStyle>
        <scale>0</scale>
      </LabelStyle>
      <BalloonStyle>
        <text><![CDATA[<h3>$[name]</h3>]]></text>
      </BalloonStyle>
    </Style>
    <Style id="icon-seq2-0-24-3949AB-nodesc-highlight">
      <IconStyle>
        <color>ffab4939</color>
        <scale>1</scale>
        <Icon>
          <href>images/icon-25.png</href>
        </Icon>
      </IconStyle>
      <LabelStyle>
        <scale>1</scale>
      </LabelStyle>
      <BalloonStyle>
        <text><![CDATA[<h3>$[name]</h3>]]></text>
      </BalloonStyle>
    </Style>
    <StyleMap id="icon-seq2-0-24-3949AB-nodesc">
      <Pair>
        <key>normal</key>
        <styleUrl>#icon-seq2-0-24-3949AB-nodesc-normal</styleUrl>
      </Pair>
      <Pair>
        <key>highlight</key>
        <styleUrl>#icon-seq2-0-24-3949AB-nodesc-highlight</styleUrl>
      </Pair>
    </StyleMap>
    <Style id="icon-seq2-0-25-3949AB-nodesc-normal">
      <IconStyle>
        <color>ffab4939</color>
        <scale>1</scale>
        <Icon>
          <href>images/icon-26.png</href>
        </Icon>
      </IconStyle>
      <LabelStyle>
        <scale>0</scale>
      </LabelStyle>
      <BalloonStyle>
        <text><![CDATA[<h3>$[name]</h3>]]></text>
      </BalloonStyle>
    </Style>
    <Style id="icon-seq2-0-25-3949AB-nodesc-highlight">
      <IconStyle>
        <color>ffab4939</color>
        <scale>1</scale>
        <Icon>
          <href>images/icon-26.png</href>
        </Icon>
      </IconStyle>
      <LabelStyle>
        <scale>1</scale>
      </LabelStyle>
      <BalloonStyle>
        <text><![CDATA[<h3>$[name]</h3>]]></text>
      </BalloonStyle>
    </Style>
    <StyleMap id="icon-seq2-0-25-3949AB-nodesc">
      <Pair>
        <key>normal</key>
        <styleUrl>#icon-seq2-0-25-3949AB-nodesc-normal</styleUrl>
      </Pair>
      <Pair>
        <key>highlight</key>
        <styleUrl>#icon-seq2-0-25-3949AB-nodesc-highlight</styleUrl>
      </Pair>
    </StyleMap>
    <Style id="icon-seq2-0-26-3949AB-nodesc-normal">
      <IconStyle>
        <color>ffab4939</color>
        <scale>1</scale>
        <Icon>
          <href>images/icon-27.png</href>
        </Icon>
      </IconStyle>
      <LabelStyle>
        <scale>0</scale>
      </LabelStyle>
      <BalloonStyle>
        <text><![CDATA[<h3>$[name]</h3>]]></text>
      </BalloonStyle>
    </Style>
    <Style id="icon-seq2-0-26-3949AB-nodesc-highlight">
      <IconStyle>
        <color>ffab4939</color>
        <scale>1</scale>
        <Icon>
          <href>images/icon-27.png</href>
        </Icon>
      </IconStyle>
      <LabelStyle>
        <scale>1</scale>
      </LabelStyle>
      <BalloonStyle>
        <text><![CDATA[<h3>$[name]</h3>]]></text>
      </BalloonStyle>
    </Style>
    <StyleMap id="icon-seq2-0-26-3949AB-nodesc">
      <Pair>
        <key>normal</key>
        <styleUrl>#icon-seq2-0-26-3949AB-nodesc-normal</styleUrl>
      </Pair>
      <Pair>
        <key>highlight</key>
        <styleUrl>#icon-seq2-0-26-3949AB-nodesc-highlight</styleUrl>
      </Pair>
    </StyleMap>
    <Style id="icon-seq2-0-27-3949AB-nodesc-normal">
      <IconStyle>
        <color>ffab4939</color>
        <scale>1</scale>
        <Icon>
          <href>images/icon-28.png</href>
        </Icon>
      </IconStyle>
      <LabelStyle>
        <scale>0</scale>
      </LabelStyle>
      <BalloonStyle>
        <text><![CDATA[<h3>$[name]</h3>]]></text>
      </BalloonStyle>
    </Style>
    <Style id="icon-seq2-0-27-3949AB-nodesc-highlight">
      <IconStyle>
        <color>ffab4939</color>
        <scale>1</scale>
        <Icon>
          <href>images/icon-28.png</href>
        </Icon>
      </IconStyle>
      <LabelStyle>
        <scale>1</scale>
      </LabelStyle>
      <BalloonStyle>
        <text><![CDATA[<h3>$[name]</h3>]]></text>
      </BalloonStyle>
    </Style>
    <StyleMap id="icon-seq2-0-27-3949AB-nodesc">
      <Pair>
        <key>normal</key>
        <styleUrl>#icon-seq2-0-27-3949AB-nodesc-normal</styleUrl>
      </Pair>
      <Pair>
        <key>highlight</key>
        <styleUrl>#icon-seq2-0-27-3949AB-nodesc-highlight</styleUrl>
      </Pair>
    </StyleMap>
    <Style id="icon-seq2-0-28-3949AB-nodesc-normal">
      <IconStyle>
        <color>ffab4939</color>
        <scale>1</scale>
        <Icon>
          <href>images/icon-29.png</href>
        </Icon>
      </IconStyle>
      <LabelStyle>
        <scale>0</scale>
      </LabelStyle>
      <BalloonStyle>
        <text><![CDATA[<h3>$[name]</h3>]]></text>
      </BalloonStyle>
    </Style>
    <Style id="icon-seq2-0-28-3949AB-nodesc-highlight">
      <IconStyle>
        <color>ffab4939</color>
        <scale>1</scale>
        <Icon>
          <href>images/icon-29.png</href>
        </Icon>
      </IconStyle>
      <LabelStyle>
        <scale>1</scale>
      </LabelStyle>
      <BalloonStyle>
        <text><![CDATA[<h3>$[name]</h3>]]></text>
      </BalloonStyle>
    </Style>
    <StyleMap id="icon-seq2-0-28-3949AB-nodesc">
      <Pair>
        <key>normal</key>
        <styleUrl>#icon-seq2-0-28-3949AB-nodesc-normal</styleUrl>
      </Pair>
      <Pair>
        <key>highlight</key>
        <styleUrl>#icon-seq2-0-28-3949AB-nodesc-highlight</styleUrl>
      </Pair>
    </StyleMap>
    <Style id="icon-seq2-0-29-3949AB-nodesc-normal">
      <IconStyle>
        <color>ffab4939</color>
        <scale>1</scale>
        <Icon>
          <href>images/icon-30.png</href>
        </Icon>
      </IconStyle>
      <LabelStyle>
        <scale>0</scale>
      </LabelStyle>
      <BalloonStyle>
        <text><![CDATA[<h3>$[name]</h3>]]></text>
      </BalloonStyle>
    </Style>
    <Style id="icon-seq2-0-29-3949AB-nodesc-highlight">
      <IconStyle>
        <color>ffab4939</color>
        <scale>1</scale>
        <Icon>
          <href>images/icon-30.png</href>
        </Icon>
      </IconStyle>
      <LabelStyle>
        <scale>1</scale>
      </LabelStyle>
      <BalloonStyle>
        <text><![CDATA[<h3>$[name]</h3>]]></text>
      </BalloonStyle>
    </Style>
    <StyleMap id="icon-seq2-0-29-3949AB-nodesc">
      <Pair>
        <key>normal</key>
        <styleUrl>#icon-seq2-0-29-3949AB-nodesc-normal</styleUrl>
      </Pair>
      <Pair>
        <key>highlight</key>
        <styleUrl>#icon-seq2-0-29-3949AB-nodesc-highlight</styleUrl>
      </Pair>
    </StyleMap>
    <Style id="icon-seq2-0-3-3949AB-nodesc-normal">
      <IconStyle>
        <color>ffab4939</color>
        <scale>1</scale>
        <Icon>
          <href>images/icon-4.png</href>
        </Icon>
      </IconStyle>
      <LabelStyle>
        <scale>0</scale>
      </LabelStyle>
      <BalloonStyle>
        <text><![CDATA[<h3>$[name]</h3>]]></text>
      </BalloonStyle>
    </Style>
    <Style id="icon-seq2-0-3-3949AB-nodesc-highlight">
      <IconStyle>
        <color>ffab4939</color>
        <scale>1</scale>
        <Icon>
          <href>images/icon-4.png</href>
        </Icon>
      </IconStyle>
      <LabelStyle>
        <scale>1</scale>
      </LabelStyle>
      <BalloonStyle>
        <text><![CDATA[<h3>$[name]</h3>]]></text>
      </BalloonStyle>
    </Style>
    <StyleMap id="icon-seq2-0-3-3949AB-nodesc">
      <Pair>
        <key>normal</key>
        <styleUrl>#icon-seq2-0-3-3949AB-nodesc-normal</styleUrl>
      </Pair>
      <Pair>
        <key>highlight</key>
        <styleUrl>#icon-seq2-0-3-3949AB-nodesc-highlight</styleUrl>
      </Pair>
    </StyleMap>
    <Style id="icon-seq2-0-30-3949AB-nodesc-normal">
      <IconStyle>
        <color>ffab4939</color>
        <scale>1</scale>
        <Icon>
          <href>images/icon-31.png</href>
        </Icon>
      </IconStyle>
      <LabelStyle>
        <scale>0</scale>
      </LabelStyle>
      <BalloonStyle>
        <text><![CDATA[<h3>$[name]</h3>]]></text>
      </BalloonStyle>
    </Style>
    <Style id="icon-seq2-0-30-3949AB-nodesc-highlight">
      <IconStyle>
        <color>ffab4939</color>
        <scale>1</scale>
        <Icon>
          <href>images/icon-31.png</href>
        </Icon>
      </IconStyle>
      <LabelStyle>
        <scale>1</scale>
      </LabelStyle>
      <BalloonStyle>
        <text><![CDATA[<h3>$[name]</h3>]]></text>
      </BalloonStyle>
    </Style>
    <StyleMap id="icon-seq2-0-30-3949AB-nodesc">
      <Pair>
        <key>normal</key>
        <styleUrl>#icon-seq2-0-30-3949AB-nodesc-normal</styleUrl>
      </Pair>
      <Pair>
        <key>highlight</key>
        <styleUrl>#icon-seq2-0-30-3949AB-nodesc-highlight</styleUrl>
      </Pair>
    </StyleMap>
    <Style id="icon-seq2-0-31-3949AB-nodesc-normal">
      <IconStyle>
        <color>ffab4939</color>
        <scale>1</scale>
        <Icon>
          <href>images/icon-32.png</href>
        </Icon>
      </IconStyle>
      <LabelStyle>
        <scale>0</scale>
      </LabelStyle>
      <BalloonStyle>
        <text><![CDATA[<h3>$[name]</h3>]]></text>
      </BalloonStyle>
    </Style>
    <Style id="icon-seq2-0-31-3949AB-nodesc-highlight">
      <IconStyle>
        <color>ffab4939</color>
        <scale>1</scale>
        <Icon>
          <href>images/icon-32.png</href>
        </Icon>
      </IconStyle>
      <LabelStyle>
        <scale>1</scale>
      </LabelStyle>
      <BalloonStyle>
        <text><![CDATA[<h3>$[name]</h3>]]></text>
      </BalloonStyle>
    </Style>
    <StyleMap id="icon-seq2-0-31-3949AB-nodesc">
      <Pair>
        <key>normal</key>
        <styleUrl>#icon-seq2-0-31-3949AB-nodesc-normal</styleUrl>
      </Pair>
      <Pair>
        <key>highlight</key>
        <styleUrl>#icon-seq2-0-31-3949AB-nodesc-highlight</styleUrl>
      </Pair>
    </StyleMap>
    <Style id="icon-seq2-0-32-3949AB-nodesc-normal">
      <IconStyle>
        <color>ffab4939</color>
        <scale>1</scale>
        <Icon>
          <href>images/icon-33.png</href>
        </Icon>
      </IconStyle>
      <LabelStyle>
        <scale>0</scale>
      </LabelStyle>
      <BalloonStyle>
        <text><![CDATA[<h3>$[name]</h3>]]></text>
      </BalloonStyle>
    </Style>
    <Style id="icon-seq2-0-32-3949AB-nodesc-highlight">
      <IconStyle>
        <color>ffab4939</color>
        <scale>1</scale>
        <Icon>
          <href>images/icon-33.png</href>
        </Icon>
      </IconStyle>
      <LabelStyle>
        <scale>1</scale>
      </LabelStyle>
      <BalloonStyle>
        <text><![CDATA[<h3>$[name]</h3>]]></text>
      </BalloonStyle>
    </Style>
    <StyleMap id="icon-seq2-0-32-3949AB-nodesc">
      <Pair>
        <key>normal</key>
        <styleUrl>#icon-seq2-0-32-3949AB-nodesc-normal</styleUrl>
      </Pair>
      <Pair>
        <key>highlight</key>
        <styleUrl>#icon-seq2-0-32-3949AB-nodesc-highlight</styleUrl>
      </Pair>
    </StyleMap>
    <Style id="icon-seq2-0-33-3949AB-nodesc-normal">
      <IconStyle>
        <color>ffab4939</color>
        <scale>1</scale>
        <Icon>
          <href>images/icon-34.png</href>
        </Icon>
      </IconStyle>
      <LabelStyle>
        <scale>0</scale>
      </LabelStyle>
      <BalloonStyle>
        <text><![CDATA[<h3>$[name]</h3>]]></text>
      </BalloonStyle>
    </Style>
    <Style id="icon-seq2-0-33-3949AB-nodesc-highlight">
      <IconStyle>
        <color>ffab4939</color>
        <scale>1</scale>
        <Icon>
          <href>images/icon-34.png</href>
        </Icon>
      </IconStyle>
      <LabelStyle>
        <scale>1</scale>
      </LabelStyle>
      <BalloonStyle>
        <text><![CDATA[<h3>$[name]</h3>]]></text>
      </BalloonStyle>
    </Style>
    <StyleMap id="icon-seq2-0-33-3949AB-nodesc">
      <Pair>
        <key>normal</key>
        <styleUrl>#icon-seq2-0-33-3949AB-nodesc-normal</styleUrl>
      </Pair>
      <Pair>
        <key>highlight</key>
        <styleUrl>#icon-seq2-0-33-3949AB-nodesc-highlight</styleUrl>
      </Pair>
    </StyleMap>
    <Style id="icon-seq2-0-34-3949AB-nodesc-normal">
      <IconStyle>
        <color>ffab4939</color>
        <scale>1</scale>
        <Icon>
          <href>images/icon-35.png</href>
        </Icon>
      </IconStyle>
      <LabelStyle>
        <scale>0</scale>
      </LabelStyle>
      <BalloonStyle>
        <text><![CDATA[<h3>$[name]</h3>]]></text>
      </BalloonStyle>
    </Style>
    <Style id="icon-seq2-0-34-3949AB-nodesc-highlight">
      <IconStyle>
        <color>ffab4939</color>
        <scale>1</scale>
        <Icon>
          <href>images/icon-35.png</href>
        </Icon>
      </IconStyle>
      <LabelStyle>
        <scale>1</scale>
      </LabelStyle>
      <BalloonStyle>
        <text><![CDATA[<h3>$[name]</h3>]]></text>
      </BalloonStyle>
    </Style>
    <StyleMap id="icon-seq2-0-34-3949AB-nodesc">
      <Pair>
        <key>normal</key>
        <styleUrl>#icon-seq2-0-34-3949AB-nodesc-normal</styleUrl>
      </Pair>
      <Pair>
        <key>highlight</key>
        <styleUrl>#icon-seq2-0-34-3949AB-nodesc-highlight</styleUrl>
      </Pair>
    </StyleMap>
    <Style id="icon-seq2-0-35-3949AB-nodesc-normal">
      <IconStyle>
        <color>ffab4939</color>
        <scale>1</scale>
        <Icon>
          <href>images/icon-36.png</href>
        </Icon>
      </IconStyle>
      <LabelStyle>
        <scale>0</scale>
      </LabelStyle>
      <BalloonStyle>
        <text><![CDATA[<h3>$[name]</h3>]]></text>
      </BalloonStyle>
    </Style>
    <Style id="icon-seq2-0-35-3949AB-nodesc-highlight">
      <IconStyle>
        <color>ffab4939</color>
        <scale>1</scale>
        <Icon>
          <href>images/icon-36.png</href>
        </Icon>
      </IconStyle>
      <LabelStyle>
        <scale>1</scale>
      </LabelStyle>
      <BalloonStyle>
        <text><![CDATA[<h3>$[name]</h3>]]></text>
      </BalloonStyle>
    </Style>
    <StyleMap id="icon-seq2-0-35-3949AB-nodesc">
      <Pair>
        <key>normal</key>
        <styleUrl>#icon-seq2-0-35-3949AB-nodesc-normal</styleUrl>
      </Pair>
      <Pair>
        <key>highlight</key>
        <styleUrl>#icon-seq2-0-35-3949AB-nodesc-highlight</styleUrl>
      </Pair>
    </StyleMap>
    <Style id="icon-seq2-0-36-3949AB-nodesc-normal">
      <IconStyle>
        <color>ffab4939</color>
        <scale>1</scale>
        <Icon>
          <href>images/icon-37.png</href>
        </Icon>
      </IconStyle>
      <LabelStyle>
        <scale>0</scale>
      </LabelStyle>
      <BalloonStyle>
        <text><![CDATA[<h3>$[name]</h3>]]></text>
      </BalloonStyle>
    </Style>
    <Style id="icon-seq2-0-36-3949AB-nodesc-highlight">
      <IconStyle>
        <color>ffab4939</color>
        <scale>1</scale>
        <Icon>
          <href>images/icon-37.png</href>
        </Icon>
      </IconStyle>
      <LabelStyle>
        <scale>1</scale>
      </LabelStyle>
      <BalloonStyle>
        <text><![CDATA[<h3>$[name]</h3>]]></text>
      </BalloonStyle>
    </Style>
    <StyleMap id="icon-seq2-0-36-3949AB-nodesc">
      <Pair>
        <key>normal</key>
        <styleUrl>#icon-seq2-0-36-3949AB-nodesc-normal</styleUrl>
      </Pair>
      <Pair>
        <key>highlight</key>
        <styleUrl>#icon-seq2-0-36-3949AB-nodesc-highlight</styleUrl>
      </Pair>
    </StyleMap>
    <Style id="icon-seq2-0-37-3949AB-nodesc-normal">
      <IconStyle>
        <color>ffab4939</color>
        <scale>1</scale>
        <Icon>
          <href>images/icon-38.png</href>
        </Icon>
      </IconStyle>
      <LabelStyle>
        <scale>0</scale>
      </LabelStyle>
      <BalloonStyle>
        <text><![CDATA[<h3>$[name]</h3>]]></text>
      </BalloonStyle>
    </Style>
    <Style id="icon-seq2-0-37-3949AB-nodesc-highlight">
      <IconStyle>
        <color>ffab4939</color>
        <scale>1</scale>
        <Icon>
          <href>images/icon-38.png</href>
        </Icon>
      </IconStyle>
      <LabelStyle>
        <scale>1</scale>
      </LabelStyle>
      <BalloonStyle>
        <text><![CDATA[<h3>$[name]</h3>]]></text>
      </BalloonStyle>
    </Style>
    <StyleMap id="icon-seq2-0-37-3949AB-nodesc">
      <Pair>
        <key>normal</key>
        <styleUrl>#icon-seq2-0-37-3949AB-nodesc-normal</styleUrl>
      </Pair>
      <Pair>
        <key>highlight</key>
        <styleUrl>#icon-seq2-0-37-3949AB-nodesc-highlight</styleUrl>
      </Pair>
    </StyleMap>
    <Style id="icon-seq2-0-38-3949AB-nodesc-normal">
      <IconStyle>
        <color>ffab4939</color>
        <scale>1</scale>
        <Icon>
          <href>images/icon-39.png</href>
        </Icon>
      </IconStyle>
      <LabelStyle>
        <scale>0</scale>
      </LabelStyle>
      <BalloonStyle>
        <text><![CDATA[<h3>$[name]</h3>]]></text>
      </BalloonStyle>
    </Style>
    <Style id="icon-seq2-0-38-3949AB-nodesc-highlight">
      <IconStyle>
        <color>ffab4939</color>
        <scale>1</scale>
        <Icon>
          <href>images/icon-39.png</href>
        </Icon>
      </IconStyle>
      <LabelStyle>
        <scale>1</scale>
      </LabelStyle>
      <BalloonStyle>
        <text><![CDATA[<h3>$[name]</h3>]]></text>
      </BalloonStyle>
    </Style>
    <StyleMap id="icon-seq2-0-38-3949AB-nodesc">
      <Pair>
        <key>normal</key>
        <styleUrl>#icon-seq2-0-38-3949AB-nodesc-normal</styleUrl>
      </Pair>
      <Pair>
        <key>highlight</key>
        <styleUrl>#icon-seq2-0-38-3949AB-nodesc-highlight</styleUrl>
      </Pair>
    </StyleMap>
    <Style id="icon-seq2-0-39-3949AB-nodesc-normal">
      <IconStyle>
        <color>ffab4939</color>
        <scale>1</scale>
        <Icon>
          <href>images/icon-40.png</href>
        </Icon>
      </IconStyle>
      <LabelStyle>
        <scale>0</scale>
      </LabelStyle>
      <BalloonStyle>
        <text><![CDATA[<h3>$[name]</h3>]]></text>
      </BalloonStyle>
    </Style>
    <Style id="icon-seq2-0-39-3949AB-nodesc-highlight">
      <IconStyle>
        <color>ffab4939</color>
        <scale>1</scale>
        <Icon>
          <href>images/icon-40.png</href>
        </Icon>
      </IconStyle>
      <LabelStyle>
        <scale>1</scale>
      </LabelStyle>
      <BalloonStyle>
        <text><![CDATA[<h3>$[name]</h3>]]></text>
      </BalloonStyle>
    </Style>
    <StyleMap id="icon-seq2-0-39-3949AB-nodesc">
      <Pair>
        <key>normal</key>
        <styleUrl>#icon-seq2-0-39-3949AB-nodesc-normal</styleUrl>
      </Pair>
      <Pair>
        <key>highlight</key>
        <styleUrl>#icon-seq2-0-39-3949AB-nodesc-highlight</styleUrl>
      </Pair>
    </StyleMap>
    <Style id="icon-seq2-0-4-3949AB-nodesc-normal">
      <IconStyle>
        <color>ffab4939</color>
        <scale>1</scale>
        <Icon>
          <href>images/icon-5.png</href>
        </Icon>
      </IconStyle>
      <LabelStyle>
        <scale>0</scale>
      </LabelStyle>
      <BalloonStyle>
        <text><![CDATA[<h3>$[name]</h3>]]></text>
      </BalloonStyle>
    </Style>
    <Style id="icon-seq2-0-4-3949AB-nodesc-highlight">
      <IconStyle>
        <color>ffab4939</color>
        <scale>1</scale>
        <Icon>
          <href>images/icon-5.png</href>
        </Icon>
      </IconStyle>
      <LabelStyle>
        <scale>1</scale>
      </LabelStyle>
      <BalloonStyle>
        <text><![CDATA[<h3>$[name]</h3>]]></text>
      </BalloonStyle>
    </Style>
    <StyleMap id="icon-seq2-0-4-3949AB-nodesc">
      <Pair>
        <key>normal</key>
        <styleUrl>#icon-seq2-0-4-3949AB-nodesc-normal</styleUrl>
      </Pair>
      <Pair>
        <key>highlight</key>
        <styleUrl>#icon-seq2-0-4-3949AB-nodesc-highlight</styleUrl>
      </Pair>
    </StyleMap>
    <Style id="icon-seq2-0-40-3949AB-nodesc-normal">
      <IconStyle>
        <color>ffab4939</color>
        <scale>1</scale>
        <Icon>
          <href>images/icon-41.png</href>
        </Icon>
      </IconStyle>
      <LabelStyle>
        <scale>0</scale>
      </LabelStyle>
      <BalloonStyle>
        <text><![CDATA[<h3>$[name]</h3>]]></text>
      </BalloonStyle>
    </Style>
    <Style id="icon-seq2-0-40-3949AB-nodesc-highlight">
      <IconStyle>
        <color>ffab4939</color>
        <scale>1</scale>
        <Icon>
          <href>images/icon-41.png</href>
        </Icon>
      </IconStyle>
      <LabelStyle>
        <scale>1</scale>
      </LabelStyle>
      <BalloonStyle>
        <text><![CDATA[<h3>$[name]</h3>]]></text>
      </BalloonStyle>
    </Style>
    <StyleMap id="icon-seq2-0-40-3949AB-nodesc">
      <Pair>
        <key>normal</key>
        <styleUrl>#icon-seq2-0-40-3949AB-nodesc-normal</styleUrl>
      </Pair>
      <Pair>
        <key>highlight</key>
        <styleUrl>#icon-seq2-0-40-3949AB-nodesc-highlight</styleUrl>
      </Pair>
    </StyleMap>
    <Style id="icon-seq2-0-41-3949AB-nodesc-normal">
      <IconStyle>
        <color>ffab4939</color>
        <scale>1</scale>
        <Icon>
          <href>images/icon-42.png</href>
        </Icon>
      </IconStyle>
      <LabelStyle>
        <scale>0</scale>
      </LabelStyle>
      <BalloonStyle>
        <text><![CDATA[<h3>$[name]</h3>]]></text>
      </BalloonStyle>
    </Style>
    <Style id="icon-seq2-0-41-3949AB-nodesc-highlight">
      <IconStyle>
        <color>ffab4939</color>
        <scale>1</scale>
        <Icon>
          <href>images/icon-42.png</href>
        </Icon>
      </IconStyle>
      <LabelStyle>
        <scale>1</scale>
      </LabelStyle>
      <BalloonStyle>
        <text><![CDATA[<h3>$[name]</h3>]]></text>
      </BalloonStyle>
    </Style>
    <StyleMap id="icon-seq2-0-41-3949AB-nodesc">
      <Pair>
        <key>normal</key>
        <styleUrl>#icon-seq2-0-41-3949AB-nodesc-normal</styleUrl>
      </Pair>
      <Pair>
        <key>highlight</key>
        <styleUrl>#icon-seq2-0-41-3949AB-nodesc-highlight</styleUrl>
      </Pair>
    </StyleMap>
    <Style id="icon-seq2-0-42-3949AB-nodesc-normal">
      <IconStyle>
        <color>ffab4939</color>
        <scale>1</scale>
        <Icon>
          <href>images/icon-43.png</href>
        </Icon>
      </IconStyle>
      <LabelStyle>
        <scale>0</scale>
      </LabelStyle>
      <BalloonStyle>
        <text><![CDATA[<h3>$[name]</h3>]]></text>
      </BalloonStyle>
    </Style>
    <Style id="icon-seq2-0-42-3949AB-nodesc-highlight">
      <IconStyle>
        <color>ffab4939</color>
        <scale>1</scale>
        <Icon>
          <href>images/icon-43.png</href>
        </Icon>
      </IconStyle>
      <LabelStyle>
        <scale>1</scale>
      </LabelStyle>
      <BalloonStyle>
        <text><![CDATA[<h3>$[name]</h3>]]></text>
      </BalloonStyle>
    </Style>
    <StyleMap id="icon-seq2-0-42-3949AB-nodesc">
      <Pair>
        <key>normal</key>
        <styleUrl>#icon-seq2-0-42-3949AB-nodesc-normal</styleUrl>
      </Pair>
      <Pair>
        <key>highlight</key>
        <styleUrl>#icon-seq2-0-42-3949AB-nodesc-highlight</styleUrl>
      </Pair>
    </StyleMap>
    <Style id="icon-seq2-0-43-3949AB-nodesc-normal">
      <IconStyle>
        <color>ffab4939</color>
        <scale>1</scale>
        <Icon>
          <href>images/icon-44.png</href>
        </Icon>
      </IconStyle>
      <LabelStyle>
        <scale>0</scale>
      </LabelStyle>
      <BalloonStyle>
        <text><![CDATA[<h3>$[name]</h3>]]></text>
      </BalloonStyle>
    </Style>
    <Style id="icon-seq2-0-43-3949AB-nodesc-highlight">
      <IconStyle>
        <color>ffab4939</color>
        <scale>1</scale>
        <Icon>
          <href>images/icon-44.png</href>
        </Icon>
      </IconStyle>
      <LabelStyle>
        <scale>1</scale>
      </LabelStyle>
      <BalloonStyle>
        <text><![CDATA[<h3>$[name]</h3>]]></text>
      </BalloonStyle>
    </Style>
    <StyleMap id="icon-seq2-0-43-3949AB-nodesc">
      <Pair>
        <key>normal</key>
        <styleUrl>#icon-seq2-0-43-3949AB-nodesc-normal</styleUrl>
      </Pair>
      <Pair>
        <key>highlight</key>
        <styleUrl>#icon-seq2-0-43-3949AB-nodesc-highlight</styleUrl>
      </Pair>
    </StyleMap>
    <Style id="icon-seq2-0-44-3949AB-nodesc-normal">
      <IconStyle>
        <color>ffab4939</color>
        <scale>1</scale>
        <Icon>
          <href>images/icon-45.png</href>
        </Icon>
      </IconStyle>
      <LabelStyle>
        <scale>0</scale>
      </LabelStyle>
      <BalloonStyle>
        <text><![CDATA[<h3>$[name]</h3>]]></text>
      </BalloonStyle>
    </Style>
    <Style id="icon-seq2-0-44-3949AB-nodesc-highlight">
      <IconStyle>
        <color>ffab4939</color>
        <scale>1</scale>
        <Icon>
          <href>images/icon-45.png</href>
        </Icon>
      </IconStyle>
      <LabelStyle>
        <scale>1</scale>
      </LabelStyle>
      <BalloonStyle>
        <text><![CDATA[<h3>$[name]</h3>]]></text>
      </BalloonStyle>
    </Style>
    <StyleMap id="icon-seq2-0-44-3949AB-nodesc">
      <Pair>
        <key>normal</key>
        <styleUrl>#icon-seq2-0-44-3949AB-nodesc-normal</styleUrl>
      </Pair>
      <Pair>
        <key>highlight</key>
        <styleUrl>#icon-seq2-0-44-3949AB-nodesc-highlight</styleUrl>
      </Pair>
    </StyleMap>
    <Style id="icon-seq2-0-45-3949AB-nodesc-normal">
      <IconStyle>
        <color>ffab4939</color>
        <scale>1</scale>
        <Icon>
          <href>images/icon-46.png</href>
        </Icon>
      </IconStyle>
      <LabelStyle>
        <scale>0</scale>
      </LabelStyle>
      <BalloonStyle>
        <text><![CDATA[<h3>$[name]</h3>]]></text>
      </BalloonStyle>
    </Style>
    <Style id="icon-seq2-0-45-3949AB-nodesc-highlight">
      <IconStyle>
        <color>ffab4939</color>
        <scale>1</scale>
        <Icon>
          <href>images/icon-46.png</href>
        </Icon>
      </IconStyle>
      <LabelStyle>
        <scale>1</scale>
      </LabelStyle>
      <BalloonStyle>
        <text><![CDATA[<h3>$[name]</h3>]]></text>
      </BalloonStyle>
    </Style>
    <StyleMap id="icon-seq2-0-45-3949AB-nodesc">
      <Pair>
        <key>normal</key>
        <styleUrl>#icon-seq2-0-45-3949AB-nodesc-normal</styleUrl>
      </Pair>
      <Pair>
        <key>highlight</key>
        <styleUrl>#icon-seq2-0-45-3949AB-nodesc-highlight</styleUrl>
      </Pair>
    </StyleMap>
    <Style id="icon-seq2-0-46-3949AB-nodesc-normal">
      <IconStyle>
        <color>ffab4939</color>
        <scale>1</scale>
        <Icon>
          <href>images/icon-47.png</href>
        </Icon>
      </IconStyle>
      <LabelStyle>
        <scale>0</scale>
      </LabelStyle>
      <BalloonStyle>
        <text><![CDATA[<h3>$[name]</h3>]]></text>
      </BalloonStyle>
    </Style>
    <Style id="icon-seq2-0-46-3949AB-nodesc-highlight">
      <IconStyle>
        <color>ffab4939</color>
        <scale>1</scale>
        <Icon>
          <href>images/icon-47.png</href>
        </Icon>
      </IconStyle>
      <LabelStyle>
        <scale>1</scale>
      </LabelStyle>
      <BalloonStyle>
        <text><![CDATA[<h3>$[name]</h3>]]></text>
      </BalloonStyle>
    </Style>
    <StyleMap id="icon-seq2-0-46-3949AB-nodesc">
      <Pair>
        <key>normal</key>
        <styleUrl>#icon-seq2-0-46-3949AB-nodesc-normal</styleUrl>
      </Pair>
      <Pair>
        <key>highlight</key>
        <styleUrl>#icon-seq2-0-46-3949AB-nodesc-highlight</styleUrl>
      </Pair>
    </StyleMap>
    <Style id="icon-seq2-0-47-3949AB-nodesc-normal">
      <IconStyle>
        <color>ffab4939</color>
        <scale>1</scale>
        <Icon>
          <href>images/icon-48.png</href>
        </Icon>
      </IconStyle>
      <LabelStyle>
        <scale>0</scale>
      </LabelStyle>
      <BalloonStyle>
        <text><![CDATA[<h3>$[name]</h3>]]></text>
      </BalloonStyle>
    </Style>
    <Style id="icon-seq2-0-47-3949AB-nodesc-highlight">
      <IconStyle>
        <color>ffab4939</color>
        <scale>1</scale>
        <Icon>
          <href>images/icon-48.png</href>
        </Icon>
      </IconStyle>
      <LabelStyle>
        <scale>1</scale>
      </LabelStyle>
      <BalloonStyle>
        <text><![CDATA[<h3>$[name]</h3>]]></text>
      </BalloonStyle>
    </Style>
    <StyleMap id="icon-seq2-0-47-3949AB-nodesc">
      <Pair>
        <key>normal</key>
        <styleUrl>#icon-seq2-0-47-3949AB-nodesc-normal</styleUrl>
      </Pair>
      <Pair>
        <key>highlight</key>
        <styleUrl>#icon-seq2-0-47-3949AB-nodesc-highlight</styleUrl>
      </Pair>
    </StyleMap>
    <Style id="icon-seq2-0-48-3949AB-nodesc-normal">
      <IconStyle>
        <color>ffab4939</color>
        <scale>1</scale>
        <Icon>
          <href>images/icon-49.png</href>
        </Icon>
      </IconStyle>
      <LabelStyle>
        <scale>0</scale>
      </LabelStyle>
      <BalloonStyle>
        <text><![CDATA[<h3>$[name]</h3>]]></text>
      </BalloonStyle>
    </Style>
    <Style id="icon-seq2-0-48-3949AB-nodesc-highlight">
      <IconStyle>
        <color>ffab4939</color>
        <scale>1</scale>
        <Icon>
          <href>images/icon-49.png</href>
        </Icon>
      </IconStyle>
      <LabelStyle>
        <scale>1</scale>
      </LabelStyle>
      <BalloonStyle>
        <text><![CDATA[<h3>$[name]</h3>]]></text>
      </BalloonStyle>
    </Style>
    <StyleMap id="icon-seq2-0-48-3949AB-nodesc">
      <Pair>
        <key>normal</key>
        <styleUrl>#icon-seq2-0-48-3949AB-nodesc-normal</styleUrl>
      </Pair>
      <Pair>
        <key>highlight</key>
        <styleUrl>#icon-seq2-0-48-3949AB-nodesc-highlight</styleUrl>
      </Pair>
    </StyleMap>
    <Style id="icon-seq2-0-49-3949AB-nodesc-normal">
      <IconStyle>
        <color>ffab4939</color>
        <scale>1</scale>
        <Icon>
          <href>images/icon-50.png</href>
        </Icon>
      </IconStyle>
      <LabelStyle>
        <scale>0</scale>
      </LabelStyle>
      <BalloonStyle>
        <text><![CDATA[<h3>$[name]</h3>]]></text>
      </BalloonStyle>
    </Style>
    <Style id="icon-seq2-0-49-3949AB-nodesc-highlight">
      <IconStyle>
        <color>ffab4939</color>
        <scale>1</scale>
        <Icon>
          <href>images/icon-50.png</href>
        </Icon>
      </IconStyle>
      <LabelStyle>
        <scale>1</scale>
      </LabelStyle>
      <BalloonStyle>
        <text><![CDATA[<h3>$[name]</h3>]]></text>
      </BalloonStyle>
    </Style>
    <StyleMap id="icon-seq2-0-49-3949AB-nodesc">
      <Pair>
        <key>normal</key>
        <styleUrl>#icon-seq2-0-49-3949AB-nodesc-normal</styleUrl>
      </Pair>
      <Pair>
        <key>highlight</key>
        <styleUrl>#icon-seq2-0-49-3949AB-nodesc-highlight</styleUrl>
      </Pair>
    </StyleMap>
    <Style id="icon-seq2-0-5-3949AB-nodesc-normal">
      <IconStyle>
        <color>ffab4939</color>
        <scale>1</scale>
        <Icon>
          <href>images/icon-6.png</href>
        </Icon>
      </IconStyle>
      <LabelStyle>
        <scale>0</scale>
      </LabelStyle>
      <BalloonStyle>
        <text><![CDATA[<h3>$[name]</h3>]]></text>
      </BalloonStyle>
    </Style>
    <Style id="icon-seq2-0-5-3949AB-nodesc-highlight">
      <IconStyle>
        <color>ffab4939</color>
        <scale>1</scale>
        <Icon>
          <href>images/icon-6.png</href>
        </Icon>
      </IconStyle>
      <LabelStyle>
        <scale>1</scale>
      </LabelStyle>
      <BalloonStyle>
        <text><![CDATA[<h3>$[name]</h3>]]></text>
      </BalloonStyle>
    </Style>
    <StyleMap id="icon-seq2-0-5-3949AB-nodesc">
      <Pair>
        <key>normal</key>
        <styleUrl>#icon-seq2-0-5-3949AB-nodesc-normal</styleUrl>
      </Pair>
      <Pair>
        <key>highlight</key>
        <styleUrl>#icon-seq2-0-5-3949AB-nodesc-highlight</styleUrl>
      </Pair>
    </StyleMap>
    <Style id="icon-seq2-0-50-3949AB-nodesc-normal">
      <IconStyle>
        <color>ffab4939</color>
        <scale>1</scale>
        <Icon>
          <href>images/icon-51.png</href>
        </Icon>
      </IconStyle>
      <LabelStyle>
        <scale>0</scale>
      </LabelStyle>
      <BalloonStyle>
        <text><![CDATA[<h3>$[name]</h3>]]></text>
      </BalloonStyle>
    </Style>
    <Style id="icon-seq2-0-50-3949AB-nodesc-highlight">
      <IconStyle>
        <color>ffab4939</color>
        <scale>1</scale>
        <Icon>
          <href>images/icon-51.png</href>
        </Icon>
      </IconStyle>
      <LabelStyle>
        <scale>1</scale>
      </LabelStyle>
      <BalloonStyle>
        <text><![CDATA[<h3>$[name]</h3>]]></text>
      </BalloonStyle>
    </Style>
    <StyleMap id="icon-seq2-0-50-3949AB-nodesc">
      <Pair>
        <key>normal</key>
        <styleUrl>#icon-seq2-0-50-3949AB-nodesc-normal</styleUrl>
      </Pair>
      <Pair>
        <key>highlight</key>
        <styleUrl>#icon-seq2-0-50-3949AB-nodesc-highlight</styleUrl>
      </Pair>
    </StyleMap>
    <Style id="icon-seq2-0-51-3949AB-nodesc-normal">
      <IconStyle>
        <color>ffab4939</color>
        <scale>1</scale>
        <Icon>
          <href>images/icon-52.png</href>
        </Icon>
      </IconStyle>
      <LabelStyle>
        <scale>0</scale>
      </LabelStyle>
      <BalloonStyle>
        <text><![CDATA[<h3>$[name]</h3>]]></text>
      </BalloonStyle>
    </Style>
    <Style id="icon-seq2-0-51-3949AB-nodesc-highlight">
      <IconStyle>
        <color>ffab4939</color>
        <scale>1</scale>
        <Icon>
          <href>images/icon-52.png</href>
        </Icon>
      </IconStyle>
      <LabelStyle>
        <scale>1</scale>
      </LabelStyle>
      <BalloonStyle>
        <text><![CDATA[<h3>$[name]</h3>]]></text>
      </BalloonStyle>
    </Style>
    <StyleMap id="icon-seq2-0-51-3949AB-nodesc">
      <Pair>
        <key>normal</key>
        <styleUrl>#icon-seq2-0-51-3949AB-nodesc-normal</styleUrl>
      </Pair>
      <Pair>
        <key>highlight</key>
        <styleUrl>#icon-seq2-0-51-3949AB-nodesc-highlight</styleUrl>
      </Pair>
    </StyleMap>
    <Style id="icon-seq2-0-52-3949AB-nodesc-normal">
      <IconStyle>
        <color>ffab4939</color>
        <scale>1</scale>
        <Icon>
          <href>images/icon-53.png</href>
        </Icon>
      </IconStyle>
      <LabelStyle>
        <scale>0</scale>
      </LabelStyle>
      <BalloonStyle>
        <text><![CDATA[<h3>$[name]</h3>]]></text>
      </BalloonStyle>
    </Style>
    <Style id="icon-seq2-0-52-3949AB-nodesc-highlight">
      <IconStyle>
        <color>ffab4939</color>
        <scale>1</scale>
        <Icon>
          <href>images/icon-53.png</href>
        </Icon>
      </IconStyle>
      <LabelStyle>
        <scale>1</scale>
      </LabelStyle>
      <BalloonStyle>
        <text><![CDATA[<h3>$[name]</h3>]]></text>
      </BalloonStyle>
    </Style>
    <StyleMap id="icon-seq2-0-52-3949AB-nodesc">
      <Pair>
        <key>normal</key>
        <styleUrl>#icon-seq2-0-52-3949AB-nodesc-normal</styleUrl>
      </Pair>
      <Pair>
        <key>highlight</key>
        <styleUrl>#icon-seq2-0-52-3949AB-nodesc-highlight</styleUrl>
      </Pair>
    </StyleMap>
    <Style id="icon-seq2-0-53-3949AB-nodesc-normal">
      <IconStyle>
        <color>ffab4939</color>
        <scale>1</scale>
        <Icon>
          <href>images/icon-54.png</href>
        </Icon>
      </IconStyle>
      <LabelStyle>
        <scale>0</scale>
      </LabelStyle>
      <BalloonStyle>
        <text><![CDATA[<h3>$[name]</h3>]]></text>
      </BalloonStyle>
    </Style>
    <Style id="icon-seq2-0-53-3949AB-nodesc-highlight">
      <IconStyle>
        <color>ffab4939</color>
        <scale>1</scale>
        <Icon>
          <href>images/icon-54.png</href>
        </Icon>
      </IconStyle>
      <LabelStyle>
        <scale>1</scale>
      </LabelStyle>
      <BalloonStyle>
        <text><![CDATA[<h3>$[name]</h3>]]></text>
      </BalloonStyle>
    </Style>
    <StyleMap id="icon-seq2-0-53-3949AB-nodesc">
      <Pair>
        <key>normal</key>
        <styleUrl>#icon-seq2-0-53-3949AB-nodesc-normal</styleUrl>
      </Pair>
      <Pair>
        <key>highlight</key>
        <styleUrl>#icon-seq2-0-53-3949AB-nodesc-highlight</styleUrl>
      </Pair>
    </StyleMap>
    <Style id="icon-seq2-0-54-3949AB-nodesc-normal">
      <IconStyle>
        <color>ffab4939</color>
        <scale>1</scale>
        <Icon>
          <href>images/icon-55.png</href>
        </Icon>
      </IconStyle>
      <LabelStyle>
        <scale>0</scale>
      </LabelStyle>
      <BalloonStyle>
        <text><![CDATA[<h3>$[name]</h3>]]></text>
      </BalloonStyle>
    </Style>
    <Style id="icon-seq2-0-54-3949AB-nodesc-highlight">
      <IconStyle>
        <color>ffab4939</color>
        <scale>1</scale>
        <Icon>
          <href>images/icon-55.png</href>
        </Icon>
      </IconStyle>
      <LabelStyle>
        <scale>1</scale>
      </LabelStyle>
      <BalloonStyle>
        <text><![CDATA[<h3>$[name]</h3>]]></text>
      </BalloonStyle>
    </Style>
    <StyleMap id="icon-seq2-0-54-3949AB-nodesc">
      <Pair>
        <key>normal</key>
        <styleUrl>#icon-seq2-0-54-3949AB-nodesc-normal</styleUrl>
      </Pair>
      <Pair>
        <key>highlight</key>
        <styleUrl>#icon-seq2-0-54-3949AB-nodesc-highlight</styleUrl>
      </Pair>
    </StyleMap>
    <Style id="icon-seq2-0-55-3949AB-nodesc-normal">
      <IconStyle>
        <color>ffab4939</color>
        <scale>1</scale>
        <Icon>
          <href>images/icon-56.png</href>
        </Icon>
      </IconStyle>
      <LabelStyle>
        <scale>0</scale>
      </LabelStyle>
      <BalloonStyle>
        <text><![CDATA[<h3>$[name]</h3>]]></text>
      </BalloonStyle>
    </Style>
    <Style id="icon-seq2-0-55-3949AB-nodesc-highlight">
      <IconStyle>
        <color>ffab4939</color>
        <scale>1</scale>
        <Icon>
          <href>images/icon-56.png</href>
        </Icon>
      </IconStyle>
      <LabelStyle>
        <scale>1</scale>
      </LabelStyle>
      <BalloonStyle>
        <text><![CDATA[<h3>$[name]</h3>]]></text>
      </BalloonStyle>
    </Style>
    <StyleMap id="icon-seq2-0-55-3949AB-nodesc">
      <Pair>
        <key>normal</key>
        <styleUrl>#icon-seq2-0-55-3949AB-nodesc-normal</styleUrl>
      </Pair>
      <Pair>
        <key>highlight</key>
        <styleUrl>#icon-seq2-0-55-3949AB-nodesc-highlight</styleUrl>
      </Pair>
    </StyleMap>
    <Style id="icon-seq2-0-56-3949AB-nodesc-normal">
      <IconStyle>
        <color>ffab4939</color>
        <scale>1</scale>
        <Icon>
          <href>images/icon-57.png</href>
        </Icon>
      </IconStyle>
      <LabelStyle>
        <scale>0</scale>
      </LabelStyle>
      <BalloonStyle>
        <text><![CDATA[<h3>$[name]</h3>]]></text>
      </BalloonStyle>
    </Style>
    <Style id="icon-seq2-0-56-3949AB-nodesc-highlight">
      <IconStyle>
        <color>ffab4939</color>
        <scale>1</scale>
        <Icon>
          <href>images/icon-57.png</href>
        </Icon>
      </IconStyle>
      <LabelStyle>
        <scale>1</scale>
      </LabelStyle>
      <BalloonStyle>
        <text><![CDATA[<h3>$[name]</h3>]]></text>
      </BalloonStyle>
    </Style>
    <StyleMap id="icon-seq2-0-56-3949AB-nodesc">
      <Pair>
        <key>normal</key>
        <styleUrl>#icon-seq2-0-56-3949AB-nodesc-normal</styleUrl>
      </Pair>
      <Pair>
        <key>highlight</key>
        <styleUrl>#icon-seq2-0-56-3949AB-nodesc-highlight</styleUrl>
      </Pair>
    </StyleMap>
    <Style id="icon-seq2-0-57-3949AB-nodesc-normal">
      <IconStyle>
        <color>ffab4939</color>
        <scale>1</scale>
        <Icon>
          <href>images/icon-58.png</href>
        </Icon>
      </IconStyle>
      <LabelStyle>
        <scale>0</scale>
      </LabelStyle>
      <BalloonStyle>
        <text><![CDATA[<h3>$[name]</h3>]]></text>
      </BalloonStyle>
    </Style>
    <Style id="icon-seq2-0-57-3949AB-nodesc-highlight">
      <IconStyle>
        <color>ffab4939</color>
        <scale>1</scale>
        <Icon>
          <href>images/icon-58.png</href>
        </Icon>
      </IconStyle>
      <LabelStyle>
        <scale>1</scale>
      </LabelStyle>
      <BalloonStyle>
        <text><![CDATA[<h3>$[name]</h3>]]></text>
      </BalloonStyle>
    </Style>
    <StyleMap id="icon-seq2-0-57-3949AB-nodesc">
      <Pair>
        <key>normal</key>
        <styleUrl>#icon-seq2-0-57-3949AB-nodesc-normal</styleUrl>
      </Pair>
      <Pair>
        <key>highlight</key>
        <styleUrl>#icon-seq2-0-57-3949AB-nodesc-highlight</styleUrl>
      </Pair>
    </StyleMap>
    <Style id="icon-seq2-0-58-3949AB-nodesc-normal">
      <IconStyle>
        <color>ffab4939</color>
        <scale>1</scale>
        <Icon>
          <href>images/icon-59.png</href>
        </Icon>
      </IconStyle>
      <LabelStyle>
        <scale>0</scale>
      </LabelStyle>
      <BalloonStyle>
        <text><![CDATA[<h3>$[name]</h3>]]></text>
      </BalloonStyle>
    </Style>
    <Style id="icon-seq2-0-58-3949AB-nodesc-highlight">
      <IconStyle>
        <color>ffab4939</color>
        <scale>1</scale>
        <Icon>
          <href>images/icon-59.png</href>
        </Icon>
      </IconStyle>
      <LabelStyle>
        <scale>1</scale>
      </LabelStyle>
      <BalloonStyle>
        <text><![CDATA[<h3>$[name]</h3>]]></text>
      </BalloonStyle>
    </Style>
    <StyleMap id="icon-seq2-0-58-3949AB-nodesc">
      <Pair>
        <key>normal</key>
        <styleUrl>#icon-seq2-0-58-3949AB-nodesc-normal</styleUrl>
      </Pair>
      <Pair>
        <key>highlight</key>
        <styleUrl>#icon-seq2-0-58-3949AB-nodesc-highlight</styleUrl>
      </Pair>
    </StyleMap>
    <Style id="icon-seq2-0-6-3949AB-nodesc-normal">
      <IconStyle>
        <color>ffab4939</color>
        <scale>1</scale>
        <Icon>
          <href>images/icon-7.png</href>
        </Icon>
      </IconStyle>
      <LabelStyle>
        <scale>0</scale>
      </LabelStyle>
      <BalloonStyle>
        <text><![CDATA[<h3>$[name]</h3>]]></text>
      </BalloonStyle>
    </Style>
    <Style id="icon-seq2-0-6-3949AB-nodesc-highlight">
      <IconStyle>
        <color>ffab4939</color>
        <scale>1</scale>
        <Icon>
          <href>images/icon-7.png</href>
        </Icon>
      </IconStyle>
      <LabelStyle>
        <scale>1</scale>
      </LabelStyle>
      <BalloonStyle>
        <text><![CDATA[<h3>$[name]</h3>]]></text>
      </BalloonStyle>
    </Style>
    <StyleMap id="icon-seq2-0-6-3949AB-nodesc">
      <Pair>
        <key>normal</key>
        <styleUrl>#icon-seq2-0-6-3949AB-nodesc-normal</styleUrl>
      </Pair>
      <Pair>
        <key>highlight</key>
        <styleUrl>#icon-seq2-0-6-3949AB-nodesc-highlight</styleUrl>
      </Pair>
    </StyleMap>
    <Style id="icon-seq2-0-7-3949AB-nodesc-normal">
      <IconStyle>
        <color>ffab4939</color>
        <scale>1</scale>
        <Icon>
          <href>images/icon-8.png</href>
        </Icon>
      </IconStyle>
      <LabelStyle>
        <scale>0</scale>
      </LabelStyle>
      <BalloonStyle>
        <text><![CDATA[<h3>$[name]</h3>]]></text>
      </BalloonStyle>
    </Style>
    <Style id="icon-seq2-0-7-3949AB-nodesc-highlight">
      <IconStyle>
        <color>ffab4939</color>
        <scale>1</scale>
        <Icon>
          <href>images/icon-8.png</href>
        </Icon>
      </IconStyle>
      <LabelStyle>
        <scale>1</scale>
      </LabelStyle>
      <BalloonStyle>
        <text><![CDATA[<h3>$[name]</h3>]]></text>
      </BalloonStyle>
    </Style>
    <StyleMap id="icon-seq2-0-7-3949AB-nodesc">
      <Pair>
        <key>normal</key>
        <styleUrl>#icon-seq2-0-7-3949AB-nodesc-normal</styleUrl>
      </Pair>
      <Pair>
        <key>highlight</key>
        <styleUrl>#icon-seq2-0-7-3949AB-nodesc-highlight</styleUrl>
      </Pair>
    </StyleMap>
    <Style id="icon-seq2-0-8-3949AB-nodesc-normal">
      <IconStyle>
        <color>ffab4939</color>
        <scale>1</scale>
        <Icon>
          <href>images/icon-9.png</href>
        </Icon>
      </IconStyle>
      <LabelStyle>
        <scale>0</scale>
      </LabelStyle>
      <BalloonStyle>
        <text><![CDATA[<h3>$[name]</h3>]]></text>
      </BalloonStyle>
    </Style>
    <Style id="icon-seq2-0-8-3949AB-nodesc-highlight">
      <IconStyle>
        <color>ffab4939</color>
        <scale>1</scale>
        <Icon>
          <href>images/icon-9.png</href>
        </Icon>
      </IconStyle>
      <LabelStyle>
        <scale>1</scale>
      </LabelStyle>
      <BalloonStyle>
        <text><![CDATA[<h3>$[name]</h3>]]></text>
      </BalloonStyle>
    </Style>
    <StyleMap id="icon-seq2-0-8-3949AB-nodesc">
      <Pair>
        <key>normal</key>
        <styleUrl>#icon-seq2-0-8-3949AB-nodesc-normal</styleUrl>
      </Pair>
      <Pair>
        <key>highlight</key>
        <styleUrl>#icon-seq2-0-8-3949AB-nodesc-highlight</styleUrl>
      </Pair>
    </StyleMap>
    <Style id="icon-seq2-0-9-3949AB-nodesc-normal">
      <IconStyle>
        <color>ffab4939</color>
        <scale>1</scale>
        <Icon>
          <href>images/icon-10.png</href>
        </Icon>
      </IconStyle>
      <LabelStyle>
        <scale>0</scale>
      </LabelStyle>
      <BalloonStyle>
        <text><![CDATA[<h3>$[name]</h3>]]></text>
      </BalloonStyle>
    </Style>
    <Style id="icon-seq2-0-9-3949AB-nodesc-highlight">
      <IconStyle>
        <color>ffab4939</color>
        <scale>1</scale>
        <Icon>
          <href>images/icon-10.png</href>
        </Icon>
      </IconStyle>
      <LabelStyle>
        <scale>1</scale>
      </LabelStyle>
      <BalloonStyle>
        <text><![CDATA[<h3>$[name]</h3>]]></text>
      </BalloonStyle>
    </Style>
    <StyleMap id="icon-seq2-0-9-3949AB-nodesc">
      <Pair>
        <key>normal</key>
        <styleUrl>#icon-seq2-0-9-3949AB-nodesc-normal</styleUrl>
      </Pair>
      <Pair>
        <key>highlight</key>
        <styleUrl>#icon-seq2-0-9-3949AB-nodesc-highlight</styleUrl>
      </Pair>
    </StyleMap>
    <Placemark>
      <name>1</name>
      <styleUrl>#icon-seq2-0-0-3949AB-nodesc</styleUrl>
      <Point>
        <coordinates>
          -68.0848016,-16.528918,0
        </coordinates>
      </Point>
    </Placemark>
    <Placemark>
      <name>2</name>
      <styleUrl>#icon-seq2-0-1-3949AB-nodesc</styleUrl>
      <Point>
        <coordinates>
          -68.0869366,-16.528234,0
        </coordinates>
      </Point>
    </Placemark>
    <Placemark>
      <name>3</name>
      <styleUrl>#icon-seq2-0-2-3949AB-nodesc</styleUrl>
      <Point>
        <coordinates>
          -68.0884976,-16.5281466,0
        </coordinates>
      </Point>
    </Placemark>
    <Placemark>
      <name>4</name>
      <styleUrl>#icon-seq2-0-3-3949AB-nodesc</styleUrl>
      <Point>
        <coordinates>
          -68.0850429,-16.5267837,0
        </coordinates>
      </Point>
    </Placemark>
    <Placemark>
      <name>5</name>
      <styleUrl>#icon-seq2-0-4-3949AB-nodesc</styleUrl>
      <Point>
        <coordinates>
          -68.0848552,-16.5231889,0
        </coordinates>
      </Point>
    </Placemark>
    <Placemark>
      <name>6</name>
      <styleUrl>#icon-seq2-0-5-3949AB-nodesc</styleUrl>
      <Point>
        <coordinates>
          -68.0869366,-16.523518,0
        </coordinates>
      </Point>
    </Placemark>
    <Placemark>
      <name>7</name>
      <styleUrl>#icon-seq2-0-6-3949AB-nodesc</styleUrl>
      <Point>
        <coordinates>
          -68.088503,-16.5236415,0
        </coordinates>
      </Point>
    </Placemark>
    <Placemark>
      <name>8</name>
      <styleUrl>#icon-seq2-0-7-3949AB-nodesc</styleUrl>
      <Point>
        <coordinates>
          -68.0883743,-16.5194654,0
        </coordinates>
      </Point>
    </Placemark>
    <Placemark>
      <name>9</name>
      <styleUrl>#icon-seq2-0-8-3949AB-nodesc</styleUrl>
      <Point>
        <coordinates>
          -68.0870492,-16.5170701,0
        </coordinates>
      </Point>
    </Placemark>
    <Placemark>
      <name>10</name>
      <styleUrl>#icon-seq2-0-9-3949AB-nodesc</styleUrl>
      <Point>
        <coordinates>
          -68.0864055,-16.5199502,0
        </coordinates>
      </Point>
    </Placemark>
    <Placemark>
      <name>11</name>
      <styleUrl>#icon-seq2-0-10-3949AB-nodesc</styleUrl>
      <Point>
        <coordinates>
          -68.0854349,-16.5179413,0
        </coordinates>
      </Point>
    </Placemark>
    <Placemark>
      <name>12</name>
      <styleUrl>#icon-seq2-0-11-3949AB-nodesc</styleUrl>
      <Point>
        <coordinates>
          -68.0863576,-16.5133536,0
        </coordinates>
      </Point>
    </Placemark>
    <Placemark>
      <name>13</name>
      <styleUrl>#icon-seq2-0-12-3949AB-nodesc</styleUrl>
      <Point>
        <coordinates>
          -68.0882142,-16.5156337,0
        </coordinates>
      </Point>
    </Placemark>
    <Placemark>
      <name>14</name>
      <styleUrl>#icon-seq2-0-13-3949AB-nodesc</styleUrl>
      <Point>
        <coordinates>
          -68.0866264,-16.5108609,0
        </coordinates>
      </Point>
    </Placemark>
    <Placemark>
      <name>15</name>
      <styleUrl>#icon-seq2-0-14-3949AB-nodesc</styleUrl>
      <Point>
        <coordinates>
          -68.0829877,-16.5066122,0
        </coordinates>
      </Point>
    </Placemark>
    <Placemark>
      <name>16</name>
      <styleUrl>#icon-seq2-0-15-3949AB-nodesc</styleUrl>
      <Point>
        <coordinates>
          -68.0844039,-16.5050281,0
        </coordinates>
      </Point>
    </Placemark>
    <Placemark>
      <name>17</name>
      <styleUrl>#icon-seq2-0-16-3949AB-nodesc</styleUrl>
      <Point>
        <coordinates>
          -68.0779023,-16.5040611,0
        </coordinates>
      </Point>
    </Placemark>
    <Placemark>
      <name>18</name>
      <styleUrl>#icon-seq2-0-17-3949AB-nodesc</styleUrl>
      <Point>
        <coordinates>
          -68.088218,-16.5073631,0
        </coordinates>
      </Point>
    </Placemark>
    <Placemark>
      <name>19</name>
      <styleUrl>#icon-seq2-0-18-3949AB-nodesc</styleUrl>
      <Point>
        <coordinates>
          -68.0883133,-16.5115297,0
        </coordinates>
      </Point>
    </Placemark>
    <Placemark>
      <name>20</name>
      <styleUrl>#icon-seq2-0-19-3949AB-nodesc</styleUrl>
      <Point>
        <coordinates>
          -68.0893218,-16.5097192,0
        </coordinates>
      </Point>
    </Placemark>
    <Placemark>
      <name>21</name>
      <styleUrl>#icon-seq2-0-20-3949AB-nodesc</styleUrl>
      <Point>
        <coordinates>
          -68.0900943,-16.5122702,0
        </coordinates>
      </Point>
    </Placemark>
    <Placemark>
      <name>22</name>
      <styleUrl>#icon-seq2-0-21-3949AB-nodesc</styleUrl>
      <Point>
        <coordinates>
          -68.0902991,-16.515079,0
        </coordinates>
      </Point>
    </Placemark>
    <Placemark>
      <name>23</name>
      <styleUrl>#icon-seq2-0-22-3949AB-nodesc</styleUrl>
      <Point>
        <coordinates>
          -68.0913076,-16.5159842,0
        </coordinates>
      </Point>
    </Placemark>
    <Placemark>
      <name>26</name>
      <styleUrl>#icon-seq2-0-23-3949AB-nodesc</styleUrl>
      <Point>
        <coordinates>
          -68.0907787,-16.5191557,0
        </coordinates>
      </Point>
    </Placemark>
    <Placemark>
      <name>Punto 26</name>
      <styleUrl>#icon-seq2-0-24-3949AB-nodesc</styleUrl>
      <Point>
        <coordinates>
          -68.0897112,-16.518986,0
        </coordinates>
      </Point>
    </Placemark>
    <Placemark>
      <name>Punto 27</name>
      <styleUrl>#icon-seq2-0-25-3949AB-nodesc</styleUrl>
      <Point>
        <coordinates>
          -68.089766,-16.5233531,0
        </coordinates>
      </Point>
    </Placemark>
    <Placemark>
      <name>Punto 28</name>
      <styleUrl>#icon-seq2-0-26-3949AB-nodesc</styleUrl>
      <Point>
        <coordinates>
          -68.0906029,-16.5237646,0
        </coordinates>
      </Point>
    </Placemark>
    <Placemark>
      <name>28</name>
      <styleUrl>#icon-seq2-0-27-3949AB-nodesc</styleUrl>
      <Point>
        <coordinates>
          -68.0902917,-16.5272205,0
        </coordinates>
      </Point>
    </Placemark>
    <Placemark>
      <name>29</name>
      <styleUrl>#icon-seq2-0-28-3949AB-nodesc</styleUrl>
      <Point>
        <coordinates>
          -68.0951304,-16.52504,0
        </coordinates>
      </Point>
    </Placemark>
    <Placemark>
      <name>30</name>
      <styleUrl>#icon-seq2-0-29-3949AB-nodesc</styleUrl>
      <Point>
        <coordinates>
          -68.0960527,-16.5254344,0
        </coordinates>
      </Point>
    </Placemark>
    <Placemark>
      <name>31</name>
      <styleUrl>#icon-seq2-0-30-3949AB-nodesc</styleUrl>
      <Point>
        <coordinates>
          -68.0943361,-16.5273064,0
        </coordinates>
      </Point>
    </Placemark>
    <Placemark>
      <name>32</name>
      <styleUrl>#icon-seq2-0-31-3949AB-nodesc</styleUrl>
      <Point>
        <coordinates>
          -68.0935207,-16.5288235,0
        </coordinates>
      </Point>
    </Placemark>
    <Placemark>
      <name>33</name>
      <styleUrl>#icon-seq2-0-32-3949AB-nodesc</styleUrl>
      <Point>
        <coordinates>
          -68.0944115,-16.5308289,0
        </coordinates>
      </Point>
    </Placemark>
    <Placemark>
      <name>34</name>
      <styleUrl>#icon-seq2-0-33-3949AB-nodesc</styleUrl>
      <Point>
        <coordinates>
          -68.0930279,-16.5311214,0
        </coordinates>
      </Point>
    </Placemark>
    <Placemark>
      <name>35</name>
      <styleUrl>#icon-seq2-0-34-3949AB-nodesc</styleUrl>
      <Point>
        <coordinates>
          -68.0930761,-16.5331219,0
        </coordinates>
      </Point>
    </Placemark>
    <Placemark>
      <name>36</name>
      <styleUrl>#icon-seq2-0-35-3949AB-nodesc</styleUrl>
      <Point>
        <coordinates>
          -68.091719,-16.5364678,0
        </coordinates>
      </Point>
    </Placemark>
    <Placemark>
      <name>37</name>
      <styleUrl>#icon-seq2-0-36-3949AB-nodesc</styleUrl>
      <Point>
        <coordinates>
          -68.092706,-16.5371877,0
        </coordinates>
      </Point>
    </Placemark>
    <Placemark>
      <name>38</name>
      <styleUrl>#icon-seq2-0-37-3949AB-nodesc</styleUrl>
      <Point>
        <coordinates>
          -68.0939184,-16.5353364,0
        </coordinates>
      </Point>
    </Placemark>
    <Placemark>
      <name>Punto 40</name>
      <styleUrl>#icon-seq2-0-38-3949AB-nodesc</styleUrl>
      <Point>
        <coordinates>
          -68.094605,-16.5337319,0
        </coordinates>
      </Point>
    </Placemark>
    <Placemark>
      <name>40</name>
      <styleUrl>#icon-seq2-0-39-3949AB-nodesc</styleUrl>
      <Point>
        <coordinates>
          -68.0954312,-16.5296126,0
        </coordinates>
      </Point>
    </Placemark>
    <Placemark>
      <name>41</name>
      <styleUrl>#icon-seq2-0-40-3949AB-nodesc</styleUrl>
      <Point>
        <coordinates>
          -68.0969439,-16.5295715,0
        </coordinates>
      </Point>
    </Placemark>
    <Placemark>
      <name>42</name>
      <styleUrl>#icon-seq2-0-41-3949AB-nodesc</styleUrl>
      <Point>
        <coordinates>
          -68.0968259,-16.5276275,0
        </coordinates>
      </Point>
    </Placemark>
    <Placemark>
      <name>43</name>
      <styleUrl>#icon-seq2-0-42-3949AB-nodesc</styleUrl>
      <Point>
        <coordinates>
          -68.0990146,-16.528219,0
        </coordinates>
      </Point>
    </Placemark>
    <Placemark>
      <name>44</name>
      <styleUrl>#icon-seq2-0-43-3949AB-nodesc</styleUrl>
      <Point>
        <coordinates>
          -68.0982421,-16.526635,0
        </coordinates>
      </Point>
    </Placemark>
    <Placemark>
      <name>45</name>
      <styleUrl>#icon-seq2-0-44-3949AB-nodesc</styleUrl>
      <Point>
        <coordinates>
          -68.0989612,-16.524583,0
        </coordinates>
      </Point>
    </Placemark>
    <Placemark>
      <name>46</name>
      <styleUrl>#icon-seq2-0-45-3949AB-nodesc</styleUrl>
      <Point>
        <coordinates>
          -68.0829323,-16.5015724,0
        </coordinates>
      </Point>
    </Placemark>
    <Placemark>
      <name>47</name>
      <styleUrl>#icon-seq2-0-46-3949AB-nodesc</styleUrl>
      <Point>
        <coordinates>
          -68.081326,-16.5008706,0
        </coordinates>
      </Point>
    </Placemark>
    <Placemark>
      <name>48</name>
      <styleUrl>#icon-seq2-0-47-3949AB-nodesc</styleUrl>
      <Point>
        <coordinates>
          -68.0770774,-16.5017552,0
        </coordinates>
      </Point>
    </Placemark>
    <Placemark>
      <name>49</name>
      <styleUrl>#icon-seq2-0-48-3949AB-nodesc</styleUrl>
      <Point>
        <coordinates>
          -68.0683656,-16.4966734,0
        </coordinates>
      </Point>
    </Placemark>
    <Placemark>
      <name>50</name>
      <styleUrl>#icon-seq2-0-49-3949AB-nodesc</styleUrl>
      <Point>
        <coordinates>
          -68.0802102,-16.5285405,0
        </coordinates>
      </Point>
    </Placemark>
    <Placemark>
      <name>51</name>
      <styleUrl>#icon-seq2-0-50-3949AB-nodesc</styleUrl>
      <Point>
        <coordinates>
          -68.0817928,-16.5211426,0
        </coordinates>
      </Point>
    </Placemark>
    <Placemark>
      <name>52</name>
      <styleUrl>#icon-seq2-0-51-3949AB-nodesc</styleUrl>
      <Point>
        <coordinates>
          -68.0834503,-16.5174936,0
        </coordinates>
      </Point>
    </Placemark>
    <Placemark>
      <name>53</name>
      <styleUrl>#icon-seq2-0-52-3949AB-nodesc</styleUrl>
      <Point>
        <coordinates>
          -68.084054,-16.5143519,0
        </coordinates>
      </Point>
    </Placemark>
    <Placemark>
      <name>54</name>
      <styleUrl>#icon-seq2-0-53-3949AB-nodesc</styleUrl>
      <Point>
        <coordinates>
          -68.0813825,-16.5143931,0
        </coordinates>
      </Point>
    </Placemark>
    <Placemark>
      <name>55</name>
      <styleUrl>#icon-seq2-0-54-3949AB-nodesc</styleUrl>
      <Point>
        <coordinates>
          -68.0807172,-16.5108134,0
        </coordinates>
      </Point>
    </Placemark>
    <Placemark>
      <name>56</name>
      <styleUrl>#icon-seq2-0-55-3949AB-nodesc</styleUrl>
      <Point>
        <coordinates>
          -68.0759322,-16.5126547,0
        </coordinates>
      </Point>
    </Placemark>
    <Placemark>
      <name>57</name>
      <styleUrl>#icon-seq2-0-56-3949AB-nodesc</styleUrl>
      <Point>
        <coordinates>
          -68.0840382,-16.5111428,0
        </coordinates>
      </Point>
    </Placemark>
    <Placemark>
      <name>58</name>
      <styleUrl>#icon-seq2-0-57-3949AB-nodesc</styleUrl>
      <Point>
        <coordinates>
          -68.0826863,-16.508962,0
        </coordinates>
      </Point>
    </Placemark>
    <Placemark>
      <name>59</name>
      <styleUrl>#icon-seq2-0-58-3949AB-nodesc</styleUrl>
      <Point>
        <coordinates>
          -68.07906,-16.5095998,0
        </coordinates>
      </Point>
    </Placemark>
  </Document>
</kml>
